{
  "type": "FeatureCollection",
  "features": [
    {
      "type": "Feature",
      "properties": {
        "norad_id": 28358,
        "name": "INTELSAT 10-02",
        "group": "intelsat",
        "lat": NaN,
        "lon": NaN,
        "alt_km": NaN,
        "timestamp": "2025-12-01T03:08:33.635681+00:00",
        "meta": {
          "OBJECT_NAME": "INTELSAT 10-02",
          "OBJECT_ID": "2004-022A",
          "EPOCH": "2025-11-30T17:15:46.904832",
          "MEAN_MOTION": 1.00270321,
          "ECCENTRICITY": 0.0001016,
          "INCLINATION": 0.0371,
          "RA_OF_ASC_NODE": 89.0661,
          "ARG_OF_PERICENTER": 182.4295,
          "MEAN_ANOMALY": 56.309,
          "EPHEMERIS_TYPE": 0,
          "CLASSIFICATION_TYPE": "U",
          "NORAD_CAT_ID": 28358,
          "ELEMENT_SET_NO": 999,
          "REV_AT_EPOCH": 7856,
          "BSTAR": 0,
          "MEAN_MOTION_DOT": 1.1e-07,
          "MEAN_MOTION_DDOT": 0
        }
      },
      "geometry": {
        "type": "Point",
        "coordinates": [
          NaN,
          NaN
        ]
      }
    },
    {
      "type": "Feature",
      "properties": {
        "norad_id": 28626,
        "name": "XM-3 (RHYTHM)",
        "group": "intelsat",
        "lat": NaN,
        "lon": NaN,
        "alt_km": NaN,
        "timestamp": "2025-12-01T03:08:33.636114+00:00",
        "meta": {
          "OBJECT_NAME": "XM-3 (RHYTHM)",
          "OBJECT_ID": "2005-008A",
          "EPOCH": "2025-11-30T18:04:57.196128",
          "MEAN_MOTION": 0.98955115,
          "ECCENTRICITY": 7.98e-05,
          "INCLINATION": 0.1405,
          "RA_OF_ASC_NODE": 80.5104,
          "ARG_OF_PERICENTER": 275.3308,
          "MEAN_ANOMALY": 156.4426,
          "EPHEMERIS_TYPE": 0,
          "CLASSIFICATION_TYPE": "U",
          "NORAD_CAT_ID": 28626,
          "ELEMENT_SET_NO": 999,
          "REV_AT_EPOCH": 4063,
          "BSTAR": 0,
          "MEAN_MOTION_DOT": -1.9e-06,
          "MEAN_MOTION_DDOT": 0
        }
      },
      "geometry": {
        "type": "Point",
        "coordinates": [
          NaN,
          NaN
        ]
      }
    },
    {
      "type": "Feature",
      "properties": {
        "norad_id": 28659,
        "name": "DIRECTV 8",
        "group": "intelsat",
        "lat": NaN,
        "lon": NaN,
        "alt_km": NaN,
        "timestamp": "2025-12-01T03:08:33.636576+00:00",
        "meta": {
          "OBJECT_NAME": "DIRECTV 8",
          "OBJECT_ID": "2005-019A",
          "EPOCH": "2025-11-30T16:42:05.131872",
          "MEAN_MOTION": 1.00266434,
          "ECCENTRICITY": 0.0003068,
          "INCLINATION": 0.0175,
          "RA_OF_ASC_NODE": 283.3666,
          "ARG_OF_PERICENTER": 327.8282,
          "MEAN_ANOMALY": 310.1163,
          "EPHEMERIS_TYPE": 0,
          "CLASSIFICATION_TYPE": "U",
          "NORAD_CAT_ID": 28659,
          "ELEMENT_SET_NO": 999,
          "REV_AT_EPOCH": 7508,
          "BSTAR": 0,
          "MEAN_MOTION_DOT": 2.3e-07,
          "MEAN_MOTION_DDOT": 0
        }
      },
      "geometry": {
        "type": "Point",
        "coordinates": [
          NaN,
          NaN
        ]
      }
    },
    {
      "type": "Feature",
      "properties": {
        "norad_id": 28702,
        "name": "GALAXY 28 (G-28)",
        "group": "intelsat",
        "lat": NaN,
        "lon": NaN,
        "alt_km": NaN,
        "timestamp": "2025-12-01T03:08:33.637012+00:00",
        "meta": {
          "OBJECT_NAME": "GALAXY 28 (G-28)",
          "OBJECT_ID": "2005-022A",
          "EPOCH": "2025-11-30T13:25:13.583136",
          "MEAN_MOTION": 1.00270992,
          "ECCENTRICITY": 0.0002652,
          "INCLINATION": 2.7875,
          "RA_OF_ASC_NODE": 81.419,
          "ARG_OF_PERICENTER": 178.6697,
          "MEAN_ANOMALY": 282.2,
          "EPHEMERIS_TYPE": 0,
          "CLASSIFICATION_TYPE": "U",
          "NORAD_CAT_ID": 28702,
          "ELEMENT_SET_NO": 999,
          "REV_AT_EPOCH": 4998,
          "BSTAR": 0,
          "MEAN_MOTION_DOT": -1.65e-06,
          "MEAN_MOTION_DDOT": 0
        }
      },
      "geometry": {
        "type": "Point",
        "coordinates": [
          NaN,
          NaN
        ]
      }
    },
    {
      "type": "Feature",
      "properties": {
        "norad_id": 29236,
        "name": "GALAXY 16 (G-16)",
        "group": "intelsat",
        "lat": NaN,
        "lon": NaN,
        "alt_km": NaN,
        "timestamp": "2025-12-01T03:08:33.637463+00:00",
        "meta": {
          "OBJECT_NAME": "GALAXY 16 (G-16)",
          "OBJECT_ID": "2006-023A",
          "EPOCH": "2025-11-30T15:05:07.393056",
          "MEAN_MOTION": 1.00270653,
          "ECCENTRICITY": 0.0002766,
          "INCLINATION": 0.0279,
          "RA_OF_ASC_NODE": 227.0783,
          "ARG_OF_PERICENTER": 21.5019,
          "MEAN_ANOMALY": 308.4622,
          "EPHEMERIS_TYPE": 0,
          "CLASSIFICATION_TYPE": "U",
          "NORAD_CAT_ID": 29236,
          "ELEMENT_SET_NO": 999,
          "REV_AT_EPOCH": 7098,
          "BSTAR": 0,
          "MEAN_MOTION_DOT": -1.05e-06,
          "MEAN_MOTION_DDOT": 0
        }
      },
      "geometry": {
        "type": "Point",
        "coordinates": [
          NaN,
          NaN
        ]
      }
    },
    {
      "type": "Feature",
      "properties": {
        "norad_id": 29494,
        "name": "DIRECTV 9S",
        "group": "intelsat",
        "lat": NaN,
        "lon": NaN,
        "alt_km": NaN,
        "timestamp": "2025-12-01T03:08:33.637899+00:00",
        "meta": {
          "OBJECT_NAME": "DIRECTV 9S",
          "OBJECT_ID": "2006-043A",
          "EPOCH": "2025-11-30T13:21:43.917120",
          "MEAN_MOTION": 1.00270945,
          "ECCENTRICITY": 0.0003051,
          "INCLINATION": 1.9058,
          "RA_OF_ASC_NODE": 83.3424,
          "ARG_OF_PERICENTER": 163.3579,
          "MEAN_ANOMALY": 282.2261,
          "EPHEMERIS_TYPE": 0,
          "CLASSIFICATION_TYPE": "U",
          "NORAD_CAT_ID": 29494,
          "ELEMENT_SET_NO": 999,
          "REV_AT_EPOCH": 4939,
          "BSTAR": 0,
          "MEAN_MOTION_DOT": -9.1e-07,
          "MEAN_MOTION_DDOT": 0
        }
      },
      "geometry": {
        "type": "Point",
        "coordinates": [
          NaN,
          NaN
        ]
      }
    },
    {
      "type": "Feature",
      "properties": {
        "norad_id": 31307,
        "name": "GALAXY 17 (G-17)",
        "group": "intelsat",
        "lat": NaN,
        "lon": NaN,
        "alt_km": NaN,
        "timestamp": "2025-12-01T03:08:33.638346+00:00",
        "meta": {
          "OBJECT_NAME": "GALAXY 17 (G-17)",
          "OBJECT_ID": "2007-016B",
          "EPOCH": "2025-11-30T18:34:16.889376",
          "MEAN_MOTION": 1.00269917,
          "ECCENTRICITY": 0.0006011,
          "INCLINATION": 2.4672,
          "RA_OF_ASC_NODE": 82.4248,
          "ARG_OF_PERICENTER": 163.0032,
          "MEAN_ANOMALY": 18.0444,
          "EPHEMERIS_TYPE": 0,
          "CLASSIFICATION_TYPE": "U",
          "NORAD_CAT_ID": 31307,
          "ELEMENT_SET_NO": 999,
          "REV_AT_EPOCH": 6781,
          "BSTAR": 0,
          "MEAN_MOTION_DOT": -1.84e-06,
          "MEAN_MOTION_DDOT": 0
        }
      },
      "geometry": {
        "type": "Point",
        "coordinates": [
          NaN,
          NaN
        ]
      }
    },
    {
      "type": "Feature",
      "properties": {
        "norad_id": 31862,
        "name": "DIRECTV 10",
        "group": "intelsat",
        "lat": NaN,
        "lon": NaN,
        "alt_km": NaN,
        "timestamp": "2025-12-01T03:08:33.638789+00:00",
        "meta": {
          "OBJECT_NAME": "DIRECTV 10",
          "OBJECT_ID": "2007-032A",
          "EPOCH": "2025-11-30T15:03:37.536192",
          "MEAN_MOTION": 1.00271863,
          "ECCENTRICITY": 2.95e-05,
          "INCLINATION": 0.0207,
          "RA_OF_ASC_NODE": 182.8384,
          "ARG_OF_PERICENTER": 354.5848,
          "MEAN_ANOMALY": 15.4538,
          "EPHEMERIS_TYPE": 0,
          "CLASSIFICATION_TYPE": "U",
          "NORAD_CAT_ID": 31862,
          "ELEMENT_SET_NO": 999,
          "REV_AT_EPOCH": 4360,
          "BSTAR": 0,
          "MEAN_MOTION_DOT": -8.1e-07,
          "MEAN_MOTION_DDOT": 0
        }
      },
      "geometry": {
        "type": "Point",
        "coordinates": [
          NaN,
          NaN
        ]
      }
    }
  ]
}