INTELSAT 10-02          
1 28358U 04022A   25334.71929288  .00000011  00000+0  00000+0 0  9997
2 28358   0.0371  89.0661 0001016 182.4295  56.3090  1.00270321 78563
XM-3 (RHYTHM)           
1 28626U 05008A   25334.75343977 -.00000190  00000+0  00000+0 0  9998
2 28626   0.1405  80.5104 0000798 275.3308 156.4426  0.98955115 40630
DIRECTV 8               
1 28659U 05019A   25334.69589273  .00000023  00000+0  00000+0 0  9994
2 28659   0.0175 283.3666 0003068 327.8282 310.1163  1.00266434 75089
GALAXY 28 (G-28)        
1 28702U 05022A   25334.55918499 -.00000165  00000+0  00000+0 0  9996
2 28702   2.7875  81.4190 0002652 178.6697 282.2000  1.00270992 49986
GALAXY 16 (G-16)        
1 29236U 06023A   25334.62855779 -.00000105  00000+0  00000+0 0  9994
2 29236   0.0279 227.0783 0002766  21.5019 308.4622  1.00270653 70983
DIRECTV 9S              
1 29494U 06043A   25334.55675830 -.00000091  00000+0  00000+0 0  9996
2 29494   1.9058  83.3424 0003051 163.3579 282.2261  1.00270945 49396
GALAXY 17 (G-17)        
1 31307U 07016B   25334.77380659 -.00000184  00000+0  00000+0 0  9992
2 31307   2.4672  82.4248 0006011 163.0032  18.0444  1.00269917 67816
DIRECTV 10              
1 31862U 07032A   25334.62751778 -.00000081  00000+0  00000+0 0  9990
2 31862   0.0207 182.8384 0000295 354.5848  15.4538  1.00271863 43605
